ASTRA 1N                
1 37775U 11041A   26156.28181359  .00000132  00000+0  00000+0 0  9997
2 37775   0.0755  30.4046 0006443  59.9605 284.0187  1.00271675 44407
BSAT-3C (JCSAT-110R)    
1 37776U 11041B   26155.71198487 -.00000338  00000+0  00000+0 0  9994
2 37776   0.0259 309.4229 0000589 193.3274 116.6774  1.00269799 50345
PAKSAT-1R               
1 37779U 11042A   26156.28554028  .00000166  00000+0  00000+0 0  9996
2 37779   0.6575  84.7185 0003452 343.1843 326.5867  1.00273689 54351
SES-2                   
1 37809U 11049A   26156.26071194 -.00000183  00000+0  00000+0 0  9993
2 37809   0.0377 113.7259 0002979 321.3478 185.4784  1.00270325 53846
ARABSAT-5C              
1 37810U 11049B   26156.28198692  .00000136  00000+0  00000+0 0  9997
2 37810   0.0566  22.4949 0003215  69.2436 283.4815  1.00272562 53913
EUTELSAT 7 WEST A       
1 37816U 11051A   26155.99137928 -.00000048  00000+0  00000+0 0  9991
2 37816   0.0611 346.0207 0004353 101.3038 155.6899  1.00271133 53759
QUETZSAT 1              
1 37826U 11054A   26156.24984829 -.00000229  00000+0  00000+0 0  9995
2 37826   0.0400  63.8927 0002889  14.2949 188.4430  1.00270480 49758
INTELSAT 18 (IS-18)     
1 37834U 11056A   26156.22614422  .00000065  00000+0  00000+0 0  9990
2 37834   0.0133 300.1072 0002236 146.3497  68.6183  1.00271753 53695
EUTELSAT 16A            
1 37836U 11057A   26156.28120692  .00000116  00000+0  00000+0 0  9997
2 37836   0.0428 344.1750 0005854  92.2685 294.5036  1.00269616  7211
VIASAT-1                
1 37843U 11059A   26156.03159725 -.00000012  00000+0  00000+0 0  9995
2 37843   0.0176 320.3026 0002448 114.7070  74.7418  1.00272074 47202
ASIASAT 7               
1 37933U 11069A   26156.29886598 -.00000322  00000+0  00000+0 0  9993
2 37933   0.0194 313.9694 0001673 110.1842  42.7019  1.00271435 44745
BEIDOU-2 IGSO-5         
1 37948U 11073A   26156.29611367 -.00000159  00000+0  00000+0 0  9992
2 37948  47.7011 271.6946 0113432 221.7167 318.6629  1.00275849 53018
LUCH-5A                 
1 37951U 11074B   26156.09718957 -.00000039  00000+0  00000+0 0  9995
2 37951   8.7230  73.9855 0002481   9.1974  12.3602  1.00269911 52931
NIGCOMSAT 1R            
1 38014U 11077A   26156.28649361  .00000157  00000+0  00000+0 0  9992
2 38014   0.0263 210.2302 0002735 146.1966  42.9225  1.00270764 52838
WGS F4 (USA 233)        
1 38070U 12003A   26155.90025258  .00000000  00000+0  00000+0 0  9992
2 38070   0.0168 336.4588 0000174 330.3130 359.0853  1.00270873 44028
SES-4                   
1 38087U 12007A   26155.41810284 -.00000156  00000+0  00000+0 0  9994
2 38087   0.0283  31.0711 0002436  50.9462 299.3641  1.00271340 52093
BEIDOU-2 G5             
1 38091U 12008A   26156.14708519  .00000069  00000+0  00000+0 0  9990
2 38091   3.5438  69.7718 0009613 276.3406  19.1300  1.00269511 52243
MUOS-1                  
1 38093U 12009A   26156.25819860 -.00000116  00000+0  00000+0 0  9991
2 38093   5.4527  47.1656 0058908   0.8775 198.6462  1.00270875 52322
INTELSAT 22 (IS-22)     
1 38098U 12011A   26156.21919906 -.00000047  00000+0  00000+0 0  9990
2 38098   0.0124  43.2010 0001605  18.6444 342.8064  1.00273183  7061
APSTAR-7                
1 38107U 12013A   26156.15063853 -.00000089  00000+0  00000+0 0  9993
2 38107   0.0215  50.9502 0003011  31.9870 301.3799  1.00271537 51681
YAHSAT 1B               
1 38245U 12016A   26156.00224440  .00000139  00000+0  00000+0 0  9999
2 38245   0.0905  91.0834 0002773   2.7285 208.0398  1.00271155 45489
AEHF-2 (USA 235)        
1 38254U 12019A   26156.06081302 -.00000125  00000+0  00000+0 0  9992
2 38254   6.6237  57.5779 0002301   6.4666 194.8426  1.00270638  6863
JCSAT-13                
1 38331U 12023A   26155.73218999 -.00000344  00000+0  00000+0 0  9993
2 38331   0.0332  72.2498 0003007  20.0683 188.4436  1.00270076 51417
VINASAT-2               
1 38332U 12023B   26156.23288492 -.00000317  00000+0  00000+0 0  9995
2 38332   0.0137 357.6977 0002620  91.9752  19.6809  1.00270048 46543
NIMIQ 6                 
1 38342U 12026A   26156.24641872 -.00000162  00000+0  00000+0 0  9993
2 38342   0.0104 330.3840 0002915 102.5721 178.3371  1.00272603 50290
ZHONGXING-2A            
1 38352U 12028A   26156.18566959 -.00000281  00000+0  00000+0 0  9993
2 38352   1.4233  84.0383 0003653  31.2974 303.3656  1.00272293 51171
INTELSAT 19 (IS-19)     
1 38356U 12030A   26156.16831861 -.00000044  00000+0  00000+0 0  9992
2 38356   0.0183 346.7603 0003188  94.0347  39.4115  1.00272087 50336
ECHOSTAR 17             
1 38551U 12035A   26155.61246584  .00000000  00000+0  00000+0 0  9996
2 38551   0.0182 346.4449 0001986  87.1972 292.8078  1.00270627 50935
METEOSAT-10 (MSG-3)     
1 38552U 12035B   26156.06416943  .00000006  00000+0  00000+0 0  9991
2 38552   4.6426  61.0733 0001803 337.4560 238.2428  1.00275627 50731
SES-5                   
1 38652U 12036A   26155.99380596  .00000046  00000+0  00000+0 0  9992
2 38652   0.0499 310.6232 0002151 122.2129 183.3480  1.00271985 44337
INTELSAT 20 (IS-20)     
1 38740U 12043A   26155.83149853 -.00000012  00000+0  00000+0 0  9994
2 38740   0.0098  81.5762 0001553  96.2799  83.2508  1.00271341 50624
